[
    {
        "Altitude(m)": 611965.1805345354,
        "Argument of Periapsis(deg)": 0.0,
        "Eccentricity": 0.0,
        "Inclination(deg)": 60.0,
        "Latitude(deg)": 59.140146949298185,
        "Longitude(deg)": -31.03033572377975,
        "Mean Anomaly(deg)": -278.1818,
        "RAAN(deg)": 355.0,
        "Satellite Name": "Test1 1567",
        "Satellite Number": 1567,
        "Semi-Major Axis(m)": 6980739.136638005,
        "Time(s)": 0
    },
    {
        "Altitude(m)": 611995.8066527809,
        "Argument of Periapsis(deg)": 0.00010418945913296404,
        "Eccentricity": 0.0,
        "Inclination(deg)": 60.0,
        "Latitude(deg)": 59.283248759749675,
        "Longitude(deg)": -29.896974874607874,
        "Mean Anomaly(deg)": -277.56169385453813,
        "RAAN(deg)": 354.99957995086027,
        "Satellite Name": "Test1 1567",
        "Satellite Number": 1567,
        "Semi-Major Axis(m)": 6980739.136638005,
        "Time(s)": 10
    }
]